LEMUR-2-DEMBITZ         
1 42842U 17042T   26068.47492167  .00020231  00000+0  76561-3 0  9991
2 42842  97.3807 250.9241 0006961  17.1421 343.0051 15.26947128473114
STARLINK-35785          
1 67176U 25303P   26067.70032128  .00037067  00000+0  13493-2 0  9998
2 67176  42.9980 316.3187 0001646 260.8630  99.2036 15.27590097 12582
